CS1                     
1 49261U 21088B   26068.75173904  .00015722  00000+0  51176-3 0  9998
2 49261  97.3882 132.1684 0014129  78.0335 282.2490 15.31848439245182
STARLINK-31504          
1 59303U 24056H   26068.43212827  .00000271  00000+0  19372-4 0  9993
2 59303  43.0012 232.2747 0001224 274.4841  85.5871 15.27566705111111
